[{"OBJECT_NAME":"STARLINK-34726","OBJECT_ID":"2025-158D","EPOCH":"2026-03-09T14:14:40.889184","MEAN_MOTION":15.05643035,"ECCENTRICITY":0.000209,"INCLINATION":97.6014,"RA_OF_ASC_NODE":294.0286,"ARG_OF_PERICENTER":70.5992,"MEAN_ANOMALY":289.5461,"EPHEMERIS_TYPE":0,"CLASSIFICATION_TYPE":"U","NORAD_CAT_ID":64935,"ELEMENT_SET_NO":999,"REV_AT_EPOCH":3534,"BSTAR":0.0007365,"MEAN_MOTION_DOT":0.0001058,"MEAN_MOTION_DDOT":0},{"OBJECT_NAME":"CZ-6A R\/B","OBJECT_ID":"2024-126D","EPOCH":"2026-03-09T19:23:06.789408","MEAN_MOTION":15.13279149,"ECCENTRICITY":0.00704729,"INCLINATION":97.7886,"RA_OF_ASC_NODE":97.6113,"ARG_OF_PERICENTER":100.2752,"MEAN_ANOMALY":260.6434,"EPHEMERIS_TYPE":0,"CLASSIFICATION_TYPE":"U","NORAD_CAT_ID":60214,"ELEMENT_SET_NO":999,"REV_AT_EPOCH":9240,"BSTAR":0.00030839807,"MEAN_MOTION_DOT":5.76e-5,"MEAN_MOTION_DDOT":0}]
